NORAD_CAT_ID,OBJECT_NAME,OBJECT_TYPE,EPOCH,MEAN_MOTION,ECCENTRICITY,INCLINATION,RA_OF_ASC_NODE,ARG_OF_PERICENTER,MEAN_ANOMALY,BSTAR,MEAN_MOTION_DOT,MEAN_MOTION_DDOT,TLE_LINE0,TLE_LINE1,TLE_LINE2,SEMIMAJOR_AXIS,PERIOD,APOGEE,PERIGEE,DECAYED
55787.0,STARLINK-5811,PAYLOAD,2023-12-22 11:57:03,14.98320895,0.0002617,70.0015,82.331,262.2652,97.821,-0.00010784,-1.379e-05,0.0,0 STARLINK-5811,1 55787U 23028AY  23356.49795980 -.00001379  00000-0 -10784-3 0  9992,2 55787  70.0015  82.3310 0002617 262.2652  97.8210 14.98320895 45954,6950.221,96.108,573.905,570.267,0.0
55787.0,STARLINK-5811,PAYLOAD,2023-12-22 13:33:11,14.9832234,0.0002643,70.0014,82.163,257.3365,102.7498,-9.1035e-05,-1.179e-05,0.0,0 STARLINK-5811,1 55787U 23028AY  23356.56471798 -.00001179  00000-0 -91035-4 0  9995,2 55787  70.0014  82.1630 0002643 257.3365 102.7498 14.98322340 45974,6950.217,96.107,573.919,570.245,0.0
55787.0,STARLINK-5811,PAYLOAD,2023-12-22 15:09:19,14.98327086,0.0002823,70.0013,81.995,261.5694,98.5145,-4.6132e-05,-6.43e-06,0.0,0 STARLINK-5811,1 55787U 23028AY  23356.63147405 -.00000643  00000-0 -46132-4 0  9991,2 55787  70.0013  81.9950 0002823 261.5694  98.5145 14.98327086 45970,6950.202,96.107,574.029,570.105,0.0
55787.0,STARLINK-5811,PAYLOAD,2023-12-23 13:35:12,14.983174,0.0002583,70.0017,79.6389,250.4292,109.6588,-0.00025387,-3.12e-05,0.0,0 STARLINK-5811,1 55787U 23028AY  23357.56611824 -.00003120  00000-0 -25387-3 0  9996,2 55787  70.0017  79.6389 0002583 250.4292 109.6588 14.98317400 46120,6950.232,96.108,573.892,570.302,0.0
55787.0,STARLINK-5811,PAYLOAD,2023-12-23 15:11:20,14.983163,0.0002486,70.0019,79.4705,249.2077,110.8816,-0.00024926,-3.065e-05,0.0,0 STARLINK-5811,1 55787U 23028AY  23357.63287919 -.00003065  00000-0 -24926-3 0  9994,2 55787  70.0019  79.4705 0002486 249.2077 110.8816 14.98316300 46127,6950.235,96.108,573.828,570.372,0.0
55787.0,STARLINK-5811,PAYLOAD,2023-12-24 12:01:02,14.98343911,0.0002605,70.0038,77.287,223.0102,137.0854,0.00029016,3.372e-05,0.0,0 STARLINK-5811,1 55787U 23028AY  23358.50072844  .00003372  00000-0  29016-3 0  9994,2 55787  70.0038  77.2870 0002605 223.0102 137.0854 14.98343911 46254,6950.15,96.106,573.825,570.204,0.0
55787.0,STARLINK-5811,PAYLOAD,2023-12-24 13:37:09,14.98368466,0.0002462,70.0023,77.1133,249.4381,110.6514,0.00057699,6.805e-05,0.0,0 STARLINK-5811,1 55787U 23028AY  23358.56746581  .00006805  00000-0  57699-3 0  9998,2 55787  70.0023  77.1133 0002462 249.4381 110.6514 14.98368466 46275,6950.074,96.105,573.65,570.228,0.0
55787.0,STARLINK-5811,PAYLOAD,2023-12-24 15:13:16,14.9837586,0.0002585,70.0015,76.9437,267.021,93.0653,0.00063121,7.455e-05,0.0,0 STARLINK-5811,1 55787U 23028AY  23358.63421697  .00007455  00000-0  63121-3 0  9993,2 55787  70.0015  76.9437 0002585 267.0210  93.0653 14.98375860 46277,6950.051,96.104,573.713,570.119,0.0
55787.0,STARLINK-5811,PAYLOAD,2023-12-25 12:03:05,14.98329121,0.0002542,70.0014,74.7559,251.8434,108.2448,-0.0004508,-5.467e-05,0.0,0 STARLINK-5811,1 55787U 23028AY  23359.50214814 -.00005467  00000-0 -45080-3 0  9998,2 55787  70.0014  74.7559 0002542 251.8434 108.2448 14.98329121 46404,6950.196,96.107,573.827,570.294,0.0
55787.0,STARLINK-5811,PAYLOAD,2023-12-25 13:39:13,14.98327231,0.0002797,70.0012,74.5882,253.3876,106.6976,-0.00038682,-4.705e-05,0.0,0 STARLINK-5811,1 55787U 23028AY  23359.56890741 -.00004705  00000-0 -38682-3 0  9997,2 55787  70.0012  74.5882 0002797 253.3876 106.6976 14.98327231 46428,6950.201,96.107,574.01,570.122,0.0
55787.0,STARLINK-5811,PAYLOAD,2023-12-25 15:15:21,14.98327132,0.0002861,70.0009,74.4195,257.9743,102.1095,-0.00038257,-4.654e-05,0.0,0 STARLINK-5811,1 55787U 23028AY  23359.63566761 -.00004654  00000-0 -38257-3 0  9998,2 55787  70.0009  74.4195 0002861 257.9743 102.1095 14.98327132 46439,6950.202,96.107,574.055,570.078,0.0
55787.0,STARLINK-5811,PAYLOAD,2023-12-26 12:05:06,14.98322105,0.000252,70.0008,72.2298,254.4052,105.6829,-4.1002e-05,-5.82e-06,0.0,0 STARLINK-5811,1 55787U 23028AY  23360.50354930 -.00000582  00000-0 -41002-4 0  9998,2 55787  70.0008  72.2298 0002520 254.4052 105.6829 14.98322105 46556,6950.217,96.108,573.834,570.331,0.0
55787.0,STARLINK-5811,PAYLOAD,2023-12-26 13:41:14,14.9832632,0.0002416,70.0014,72.0621,247.8684,112.2219,-8.6086e-05,-1.12e-05,0.0,0 STARLINK-5811,1 55787U 23028AY  23360.57030804 -.00001120  00000-0 -86086-4 0  9996,2 55787  70.0014  72.0621 0002416 247.8684 112.2219 14.98326320 46574,6950.204,96.107,573.748,570.39,0.0
55787.0,STARLINK-5811,PAYLOAD,2023-12-27 04:06:26,14.98318172,0.0002861,70.0002,70.5461,262.2199,97.8636,0.00017294,1.97e-05,0.0,0 STARLINK-5811,1 55787U 23028AY  23361.17114352  .00001970  00000-0  17294-3 0  9999,2 55787  70.0002  70.5461 0002861 262.2199  97.8636 14.98318172 46658,6950.229,96.108,574.083,570.106,0.0
55787.0,STARLINK-5811,PAYLOAD,2023-12-27 13:43:14,14.98326929,0.0002476,70.0008,69.5366,260.3331,99.7549,0.00021709,2.498e-05,0.0,0 STARLINK-5811,1 55787U 23028AY  23361.57169985  .00002498  00000-0  21709-3 0  9997,2 55787  70.0008  69.5366 0002476 260.3331  99.7549 14.98326929 46726,6950.202,96.107,573.788,570.347,0.0
55787.0,STARLINK-5811,PAYLOAD,2023-12-28 12:09:08,14.98321123,0.0002604,70.0013,67.181,255.5605,104.5265,1.3e-06,-7.7e-07,0.0,0 STARLINK-5811,1 55787U 23028AY  23362.50635162 -.00000077  00000-0  13000-5 0  9995,2 55787  70.0013  67.1810 0002604 255.5605 104.5265 14.98321123 46858,6950.22,96.108,573.895,570.276,0.0
55787.0,STARLINK-5811,PAYLOAD,2023-12-28 13:45:16,14.98324615,0.0002477,70.0009,67.0122,267.1142,92.9733,4.3032e-05,4.2e-06,0.0,0 STARLINK-5811,1 55787U 23028AY  23362.57310981  .00000420  00000-0  43032-4 0  9999,2 55787  70.0009  67.0122 0002477 267.1142  92.9733 14.98324615 46872,6950.21,96.107,573.796,570.353,0.0
55787.0,STARLINK-5811,PAYLOAD,2023-12-29 04:10:29,14.98330598,0.0002565,70.001,65.4974,264.8152,95.2715,-1.2181e-05,-2.38e-06,0.0,0 STARLINK-5811,1 55787U 23028AY  23363.17394709 -.00000238  00000-0 -12181-4 0  9996,2 55787  70.0010  65.4974 0002565 264.8152  95.2715 14.98330598 46956,6950.191,96.107,573.839,570.273,0.0
55787.0,STARLINK-5811,PAYLOAD,2023-12-29 13:47:17,14.98331903,0.000269,70.0007,64.4873,261.6372,98.4483,7.7929e-06,0.0,0.0,0 STARLINK-5811,1 55787U 23028AY  23363.57450496  .00000000  00000-0  77929-5 0  9993,2 55787  70.0007  64.4873 0002690 261.6372  98.4483 14.98331903 47024,6950.187,96.107,573.922,570.182,0.0
55787.0,STARLINK-5811,PAYLOAD,2023-12-30 04:12:30,14.98321732,0.0002667,70.0009,62.9731,255.7416,104.3447,-6.0485e-06,-1.65e-06,0.0,0 STARLINK-5811,1 55787U 23028AY  23364.17535171 -.00000165  00000-0 -60485-5 0  9997,2 55787  70.0009  62.9731 0002667 255.7416 104.3447 14.98321732 47104,6950.218,96.108,573.937,570.23,0.0
55787.0,STARLINK-5811,PAYLOAD,2023-12-30 13:49:19,14.98320016,0.0002736,70.0006,61.9626,259.4261,100.659,-3.0908e-05,-4.62e-06,0.0,0 STARLINK-5811,1 55787U 23028AY  23364.57591563 -.00000462  00000-0 -30908-4 0  9994,2 55787  70.0006  61.9626 0002736 259.4261 100.6590 14.98320016 47178,6950.224,96.108,573.99,570.187,0.0
55787.0,STARLINK-5811,PAYLOAD,2023-12-31 04:14:30,14.98332257,0.0003316,69.9993,60.4465,271.6148,88.4631,3.3575e-05,3.08e-06,0.0,0 STARLINK-5811,1 55787U 23028AY  23365.17674746  .00000308  00000-0  33575-4 0  9996,2 55787  69.9993  60.4465 0003316 271.6148  88.4631 14.98332257 47258,6950.186,96.107,574.356,569.746,0.0
55787.0,STARLINK-5811,PAYLOAD,2023-12-31 13:51:18,14.98337698,0.0003031,70.0001,59.4371,268.1317,91.9495,9.7711e-05,1.073e-05,0.0,0 STARLINK-5811,1 55787U 23028AY  23365.57729994  .00001073  00000-0  97711-4 0  9998,2 55787  70.0001  59.4371 0003031 268.1317  91.9495 14.98337698 47316,6950.169,96.107,574.141,569.927,0.0
55787.0,STARLINK-5811,PAYLOAD,2024-01-01 04:16:31,14.98328795,0.0002516,70.0011,57.9227,259.3486,100.739,0.00010571,1.169e-05,0.0,0 STARLINK-5811,1 55787U 23028AY  24001.17814415  .00001169  00000-0  10571-3 0  9999,2 55787  70.0011  57.9227 0002516 259.3486 100.7390 14.98328795 47407,6950.197,96.107,573.81,570.313,0.0
55787.0,STARLINK-5811,PAYLOAD,2024-01-01 13:53:20,14.98326983,0.0002597,70.0009,56.9122,260.7899,99.2966,6.9975e-05,7.42e-06,0.0,0 STARLINK-5811,1 55787U 23028AY  24001.57870644  .00000742  00000-0  69975-4 0  9998,2 55787  70.0009  56.9122 0002597 260.7899  99.2966 14.98326983 47475,6950.202,96.107,573.872,570.262,0.0
55787.0,STARLINK-5811,PAYLOAD,2024-01-02 04:18:32,14.98335203,0.0002698,70.0007,55.3969,266.1941,93.8909,-4.2414e-05,-5.99e-06,0.0,0 STARLINK-5811,1 55787U 23028AY  24002.17954311 -.00000599  00000-0 -42414-4 0  9990,2 55787  70.0007  55.3969 0002698 266.1941  93.8909 14.98335203 47556,6950.177,96.107,573.917,570.167,0.0
55787.0,STARLINK-5811,PAYLOAD,2024-01-02 12:19:12,14.98334174,0.0002727,70.0006,54.5553,266.7004,93.3843,-5.0948e-05,-7.01e-06,0.0,0 STARLINK-5811,1 55787U 23028AY  24002.51334288 -.00000701  00000-0 -50948-4 0  9999,2 55787  70.0006  54.5553 0002727 266.7004  93.3843 14.98334174 47619,6950.18,96.107,573.94,570.15,0.0
55787.0,STARLINK-5811,PAYLOAD,2024-01-03 04:20:33,14.98347467,0.0002609,70.0005,52.8718,266.9952,93.0908,-0.00034079,-4.159e-05,0.0,0 STARLINK-5811,1 55787U 23028AY  24003.18094373 -.00004159  00000-0 -34079-3 0  9998,2 55787  70.0005  52.8718 0002609 266.9952  93.0908 14.98347467 47703,6950.139,96.106,573.817,570.191,0.0
55787.0,STARLINK-5811,PAYLOAD,2024-01-03 12:21:14,14.98325126,0.0002803,70.0004,52.0302,265.4795,94.6044,-5.8637e-05,-7.92e-06,0.0,0 STARLINK-5811,1 55787U 23028AY  24003.51474797 -.00000792  00000-0 -58637-4 0  9993,2 55787  70.0004  52.0302 0002803 265.4795  94.6044 14.98325126 47759,6950.208,96.107,574.021,570.125,0.0
55787.0,STARLINK-5811,PAYLOAD,2024-01-04 04:22:34,14.98331298,0.0002974,69.9998,50.3462,267.0642,93.0177,-1.1224e-06,-1.06e-06,0.0,0 STARLINK-5811,1 55787U 23028AY  24004.18234259 -.00000106  00000-0 -11224-5 0  9995,2 55787  69.9998  50.3462 0002974 267.0642  93.0177 14.98331298 47852,6950.189,96.107,574.121,569.987,0.0
